[{"OBJECT_NAME":"IRIDIUM 114","OBJECT_ID":"2017-003G","EPOCH":"2026-03-09T17:25:34.142304","MEAN_MOTION":14.34217503,"ECCENTRICITY":0.00021341,"INCLINATION":86.3979,"RA_OF_ASC_NODE":130.0546,"ARG_OF_PERICENTER":90.4305,"MEAN_ANOMALY":269.7135,"EPHEMERIS_TYPE":0,"CLASSIFICATION_TYPE":"U","NORAD_CAT_ID":41923,"ELEMENT_SET_NO":999,"REV_AT_EPOCH":47899,"BSTAR":9.4657235e-5,"MEAN_MOTION_DOT":2.85e-6,"MEAN_MOTION_DDOT":0},{"OBJECT_NAME":"FENGYUN 1C DEB","OBJECT_ID":"1999-025KQ","EPOCH":"2026-03-09T13:25:58.662336","MEAN_MOTION":14.25936533,"ECCENTRICITY":0.00401675,"INCLINATION":99.4873,"RA_OF_ASC_NODE":287.658,"ARG_OF_PERICENTER":97.6134,"MEAN_ANOMALY":262.9608,"EPHEMERIS_TYPE":0,"CLASSIFICATION_TYPE":"U","NORAD_CAT_ID":29966,"ELEMENT_SET_NO":999,"REV_AT_EPOCH":99280,"BSTAR":0.00038723705,"MEAN_MOTION_DOT":8.8e-6,"MEAN_MOTION_DDOT":0}]
